{
  "norad_id": 66069,
  "name": "STARLINK-35279",
  "history": [
    {
      "epoch": "2026-03-28T21:27:03.012768",
      "apogee_km": 476.01572826708707,
      "perigee_km": 474.3257025844623,
      "latitude_deg": 36.03636089006136,
      "longitude_deg": 152.70334751997143,
      "semi_major_axis_km": 6853.307715425774,
      "eccentricity": 0.0001233,
      "inclination_deg": 53.1591,
      "raan_deg": 155.9284,
      "arg_perigee_deg": 88.5651,
      "mean_anomaly_deg": 271.5491,
      "mean_motion_rev_day": 15.30214855
    }
  ]
}