{"fetched_at":"2026-03-29T16:36:15Z","count":15609,"tles":[{"name":"STARLINK-35279","line1":"1 66069U 25235M   26087.89378487  .00028811  00000+0  98065-3 0  9991","line2":"2 66069  53.1591 155.9284 0001233  88.5651 271.5491 15.30214855 25863","category":"Starlink"}]}